start=new Date('2023-01-11T00:00:00.000Z').valueOf();
sats=[{"CENTER_NAME":"EARTH","MEAN_MOTION_DDOT":"0.0000000000000","INCLINATION":"53.0551","ECCENTRICITY":"0.00020390","RA_OF_ASC_NODE":"5.9242","DECAY_DATE":null,"BSTAR":"-0.00006753800000","MEAN_ANOMALY":"310.4546","EPOCH":"2023-01-10T23:04:52.860288","RCS_SIZE":"LARGE","TLE_LINE2":"2 47762  53.0551   5.9242 0002039  49.6621 310.4546 15.06388517103642","REF_FRAME":"TEME","MEAN_MOTION":"15.06388517","MEAN_MOTION_DOT":"-0.00001287","EPHEMERIS_TYPE":"0","SITE":"AFETR","NORAD_CAT_ID":"47762","MEAN_ELEMENT_THEORY":"SGP4","REV_AT_EPOCH":"10364","OBJECT_ID":"2021-017AS","SEMIMAJOR_AXIS":"6925.384","OBJECT_NAME":"STARLINK-2180","APOAPSIS":"548.661","TLE_LINE1":"1 47762U 21017AS  23010.96172292 -.00001287  00000-0 -67538-4 0  9994","ARG_OF_PERICENTER":"49.6621","CLASSIFICATION_TYPE":"U","COUNTRY_CODE":"US","LAUNCH_DATE":"2021-03-04","OBJECT_TYPE":"PAYLOAD","ELEMENT_SET_NO":"999","TIME_SYSTEM":"UTC","GP_ID":"222720331","PERIOD":"95.593","FILE":"3739267","PERIAPSIS":"545.837"},{"CENTER_NAME":"EARTH","MEAN_MOTION_DDOT":"0.0000000000000","INCLINATION":"53.0545","ECCENTRICITY":"0.00026330","RA_OF_ASC_NODE":"356.1295","DECAY_DATE":null,"BSTAR":"0.00002254700000","MEAN_ANOMALY":"331.2846","RCS_SIZE":"LARGE","EPOCH":"2023-01-10T21:51:52.944480","REF_FRAME":"TEME","TLE_LINE2":"2 47763  53.0545 356.1295 0002633  28.8288 331.2846 15.06399856103757","MEAN_MOTION":"15.06399856","EPHEMERIS_TYPE":"0","MEAN_MOTION_DOT":"0.00000054","SITE":"AFETR","NORAD_CAT_ID":"47763","MEAN_ELEMENT_THEORY":"SGP4","REV_AT_EPOCH":"10375","OBJECT_ID":"2021-017AT","SEMIMAJOR_AXIS":"6925.349","OBJECT_NAME":"STARLINK-2181","APOAPSIS":"549.037","TLE_LINE1":"1 47763U 21017AT  23010.91102945  .00000054  00000-0  22547-4 0  9998","ARG_OF_PERICENTER":"28.8288","CLASSIFICATION_TYPE":"U","COUNTRY_CODE":"US","LAUNCH_DATE":"2021-03-04","ELEMENT_SET_NO":"999","OBJECT_TYPE":"PAYLOAD","TIME_SYSTEM":"UTC","GP_ID":"222719585","PERIOD":"95.592","FILE":"3739267","PERIAPSIS":"545.391"},{"OBJECT_ID":"2021-017AU","SEMIMAJOR_AXIS":"6925.334","OBJECT_NAME":"STARLINK-2182","APOAPSIS":"548.735","TLE_LINE1":"1 47764U 21017AU  23010.68157822  .00000892  00000-0  78766-4 0  9991","ARG_OF_PERICENTER":"33.4334","COUNTRY_CODE":"US","CLASSIFICATION_TYPE":"U","LAUNCH_DATE":"2021-03-04","OBJECT_TYPE":"PAYLOAD","ELEMENT_SET_NO":"999","TIME_SYSTEM":"UTC","PERIOD":"95.592","GP_ID":"222719336","FILE":"3739267","PERIAPSIS":"545.663","CENTER_NAME":"EARTH","MEAN_MOTION_DDOT":"0.0000000000000","RA_OF_ASC_NODE":"7.1673","INCLINATION":"53.0558","ECCENTRICITY":"0.00022180","BSTAR":"0.00007876600000","DECAY_DATE":null,"REF_FRAME":"TEME","TLE_LINE2":"2 47764  53.0558   7.1673 0002218  33.4334 326.6794 15.06404682103639","MEAN_ANOMALY":"326.6794","EPOCH":"2023-01-10T16:21:28.358208","RCS_SIZE":"LARGE","MEAN_MOTION_DOT":"0.00000892","EPHEMERIS_TYPE":"0","SITE":"AFETR","MEAN_MOTION":"15.06404682","REV_AT_EPOCH":"10363","MEAN_ELEMENT_THEORY":"SGP4","NORAD_CAT_ID":"47764"},{"BSTAR":"-0.00006108400000","DECAY_DATE":null,"CENTER_NAME":"EARTH","MEAN_MOTION_DDOT":"0.0000000000000","RA_OF_ASC_NODE":"7.0831","INCLINATION":"53.0555","ECCENTRICITY":"0.00018000","MEAN_MOTION_DOT":"-0.00001191","EPHEMERIS_TYPE":"0","SITE":"AFETR","MEAN_MOTION":"15.06379198","REV_AT_EPOCH":"10357","MEAN_ELEMENT_THEORY":"SGP4","NORAD_CAT_ID":"47766","REF_FRAME":"TEME","TLE_LINE2":"2 47766  53.0555   7.0831 0001800  39.4417 320.6703 15.06379198103577","MEAN_ANOMALY":"320.6703","RCS_SIZE":"LARGE","EPOCH":"2023-01-10T16:46:40.655424","TLE_LINE1":"1 47766U 21017AW  23010.69908166 -.00001191  00000-0 -61084-4 0  9999","ARG_OF_PERICENTER":"39.4417","CLASSIFICATION_TYPE":"U","COUNTRY_CODE":"US","LAUNCH_DATE":"2021-03-04","OBJECT_ID":"2021-017AW","SEMIMAJOR_AXIS":"6925.412","APOAPSIS":"548.524","OBJECT_NAME":"STARLINK-2184","PERIOD":"95.593","GP_ID":"222720585","PERIAPSIS":"546.031","FILE":"3739267","ELEMENT_SET_NO":"999","OBJECT_TYPE":"PAYLOAD","TIME_SYSTEM":"UTC"},{"MEAN_MOTION":"15.06404227","EPHEMERIS_TYPE":"0","MEAN_MOTION_DOT":"0.00001791","SITE":"AFETR","NORAD_CAT_ID":"47767","MEAN_ELEMENT_THEORY":"SGP4","REV_AT_EPOCH":"10388","MEAN_ANOMALY":"320.5226","RCS_SIZE":"LARGE","EPOCH":"2023-01-10T22:11:07.408320","TLE_LINE2":"2 47767  53.0551 351.0858 0002201  39.5923 320.5226 15.06404227103889","REF_FRAME":"TEME","DECAY_DATE":null,"BSTAR":"0.00013912000000","CENTER_NAME":"EARTH","MEAN_MOTION_DDOT":"0.0000000000000","INCLINATION":"53.0551","ECCENTRICITY":"0.00022010","RA_OF_ASC_NODE":"351.0858","GP_ID":"222720831","PERIOD":"95.592","FILE":"3739267","PERIAPSIS":"545.676","OBJECT_TYPE":"PAYLOAD","ELEMENT_SET_NO":"999","TIME_SYSTEM":"UTC","TLE_LINE1":"1 47767U 21017AX  23010.92439130  .00001791  00000-0  13912-3 0  9996","ARG_OF_PERICENTER":"39.5923","CLASSIFICATION_TYPE":"U","COUNTRY_CODE":"US","LAUNCH_DATE":"2021-03-04","SEMIMAJOR_AXIS":"6925.336","OBJECT_ID":"2021-017AX","OBJECT_NAME":"STARLINK-2185","APOAPSIS":"548.725"},{"GP_ID":"222719086","PERIOD":"95.593","FILE":"3739267","PERIAPSIS":"546.040","OBJECT_TYPE":"PAYLOAD","ELEMENT_SET_NO":"999","TIME_SYSTEM":"UTC","TLE_LINE1":"1 47768U 21017AY  23010.96544680 -.00000221  00000-0  40806-5 0  9990","ARG_OF_PERICENTER":"35.8086","CLASSIFICATION_TYPE":"U","COUNTRY_CODE":"US","LAUNCH_DATE":"2021-03-04","SEMIMAJOR_AXIS":"6925.371","OBJECT_ID":"2021-017AY","OBJECT_NAME":"STARLINK-2189","APOAPSIS":"548.432","MEAN_MOTION":"15.06392643","EPHEMERIS_TYPE":"0","MEAN_MOTION_DOT":"-0.00000221","SITE":"AFETR","NORAD_CAT_ID":"47768","MEAN_ELEMENT_THEORY":"SGP4","REV_AT_EPOCH":"10364","MEAN_ANOMALY":"324.3018","EPOCH":"2023-01-10T23:10:14.603520","RCS_SIZE":"LARGE","TLE_LINE2":"2 47768  53.0555   6.2871 0001727  35.8086 324.3018 15.06392643103642","REF_FRAME":"TEME","DECAY_DATE":null,"BSTAR":"0.00000408060000","CENTER_NAME":"EARTH","MEAN_MOTION_DDOT":"0.0000000000000","INCLINATION":"53.0555","ECCENTRICITY":"0.00017270","RA_OF_ASC_NODE":"6.2871"},{"FILE":"3739038","PERIAPSIS":"545.539","GP_ID":"222662346","PERIOD":"95.592","TIME_SYSTEM":"UTC","ELEMENT_SET_NO":"999","OBJECT_TYPE":"PAYLOAD","CLASSIFICATION_TYPE":"U","COUNTRY_CODE":"US","LAUNCH_DATE":"2021-03-04","TLE_LINE1":"1 47769U 21017AZ  23010.37703199  .00000548  00000-0  55678-4 0  9991","ARG_OF_PERICENTER":"38.2966","SEMIMAJOR_AXIS":"6925.347","OBJECT_ID":"2021-017AZ","APOAPSIS":"548.885","OBJECT_NAME":"STARLINK-2192","NORAD_CAT_ID":"47769","MEAN_ELEMENT_THEORY":"SGP4","REV_AT_EPOCH":"10407","MEAN_MOTION":"15.06400415","EPHEMERIS_TYPE":"0","MEAN_MOTION_DOT":"0.00000548","SITE":"AFETR","MEAN_ANOMALY":"321.8194","EPOCH":"2023-01-10T09:02:55.563936","RCS_SIZE":"LARGE","TLE_LINE2":"2 47769  53.0547 333.5362 0002416  38.2966 321.8194 15.06400415104077","REF_FRAME":"TEME","DECAY_DATE":null,"BSTAR":"0.00005567800000","INCLINATION":"53.0547","ECCENTRICITY":"0.00024160","RA_OF_ASC_NODE":"333.5362","CENTER_NAME":"EARTH","MEAN_MOTION_DDOT":"0.0000000000000"},{"BSTAR":"0.00005177200000","DECAY_DATE":null,"RA_OF_ASC_NODE":"347.2974","INCLINATION":"53.0576","ECCENTRICITY":"0.00016160","CENTER_NAME":"EARTH","MEAN_MOTION_DDOT":"0.0000000000000","REV_AT_EPOCH":"10388","NORAD_CAT_ID":"47770","MEAN_ELEMENT_THEORY":"SGP4","EPHEMERIS_TYPE":"0","MEAN_MOTION_DOT":"0.00000490","SITE":"AFETR","MEAN_MOTION":"15.06402486","REF_FRAME":"TEME","TLE_LINE2":"2 47770  53.0576 347.2974 0001616  68.8428 291.2733 15.06402486103882","MEAN_ANOMALY":"291.2733","RCS_SIZE":"LARGE","EPOCH":"2023-01-10T15:36:21.672576","COUNTRY_CODE":"US","CLASSIFICATION_TYPE":"U","LAUNCH_DATE":"2021-03-04","TLE_LINE1":"1 47770U 21017BA  23010.65025084  .00000490  00000-0  51772-4 0  9991","ARG_OF_PERICENTER":"68.8428","OBJECT_ID":"2021-017BA","SEMIMAJOR_AXIS":"6925.341","APOAPSIS":"548.325","OBJECT_NAME":"STARLINK-2193","PERIAPSIS":"546.087","FILE":"3739267","PERIOD":"95.592","GP_ID":"222720086","TIME_SYSTEM":"UTC","OBJECT_TYPE":"PAYLOAD","ELEMENT_SET_NO":"999"},{"GP_ID":"222720332","PERIOD":"95.593","PERIAPSIS":"545.468","FILE":"3739267","OBJECT_TYPE":"PAYLOAD","ELEMENT_SET_NO":"999","TIME_SYSTEM":"UTC","TLE_LINE1":"1 47771U 21017BB  23010.66131078 -.00001412  00000-0 -75891-4 0  9999","ARG_OF_PERICENTER":"30.9788","CLASSIFICATION_TYPE":"U","COUNTRY_CODE":"US","LAUNCH_DATE":"2021-03-04","OBJECT_ID":"2021-017BB","SEMIMAJOR_AXIS":"6925.375","APOAPSIS":"549.012","OBJECT_NAME":"STARLINK-2194","MEAN_MOTION":"15.06391306","MEAN_MOTION_DOT":"-0.00001412","EPHEMERIS_TYPE":"0","SITE":"AFETR","NORAD_CAT_ID":"47771","MEAN_ELEMENT_THEORY":"SGP4","REV_AT_EPOCH":"10389","MEAN_ANOMALY":"329.1352","RCS_SIZE":"LARGE","EPOCH":"2023-01-10T15:52:17.251392","TLE_LINE2":"2 47771  53.0546 347.2567 0002559  30.9788 329.1352 15.06391306103891","REF_FRAME":"TEME","DECAY_DATE":null,"BSTAR":"-0.00007589100000","CENTER_NAME":"EARTH","MEAN_MOTION_DDOT":"0.0000000000000","INCLINATION":"53.0546","ECCENTRICITY":"0.00025590","RA_OF_ASC_NODE":"347.2567"},{"LAUNCH_DATE":"2021-03-04","CLASSIFICATION_TYPE":"U","COUNTRY_CODE":"US","ARG_OF_PERICENTER":"31.6183","TLE_LINE1":"1 47772U 21017BC  23010.38532043 -.00000961  00000-0 -45609-4 0  9998","APOAPSIS":"548.726","OBJECT_NAME":"STARLINK-2195","SEMIMAJOR_AXIS":"6925.361","OBJECT_ID":"2021-017BC","FILE":"3739038","PERIAPSIS":"545.727","PERIOD":"95.592","GP_ID":"222661600","TIME_SYSTEM":"UTC","ELEMENT_SET_NO":"999","OBJECT_TYPE":"PAYLOAD","BSTAR":"-0.00004560900000","DECAY_DATE":null,"RA_OF_ASC_NODE":"3.5045","ECCENTRICITY":"0.00021650","INCLINATION":"53.0556","MEAN_MOTION_DDOT":"0.0000000000000","CENTER_NAME":"EARTH","REV_AT_EPOCH":"10361","NORAD_CAT_ID":"47772","MEAN_ELEMENT_THEORY":"SGP4","SITE":"AFETR","MEAN_MOTION_DOT":"-0.00000961","EPHEMERIS_TYPE":"0","MEAN_MOTION":"15.06395873","TLE_LINE2":"2 47772  53.0556   3.5045 0002165  31.6183 328.4936 15.06395873103619","REF_FRAME":"TEME","RCS_SIZE":"LARGE","EPOCH":"2023-01-10T09:14:51.685152","MEAN_ANOMALY":"328.4936"}];
